[{"OBJECT_NAME":"STARLINK-5256","OBJECT_ID":"2022-141U","EPOCH":"2026-03-09T06:24:36.907776","MEAN_MOTION":15.08869984,"ECCENTRICITY":0.00016823,"INCLINATION":53.2185,"RA_OF_ASC_NODE":6.0286,"ARG_OF_PERICENTER":85.0951,"MEAN_ANOMALY":275.0233,"EPHEMERIS_TYPE":0,"CLASSIFICATION_TYPE":"U","NORAD_CAT_ID":54175,"ELEMENT_SET_NO":999,"REV_AT_EPOCH":18579,"BSTAR":0.00051536115,"MEAN_MOTION_DOT":7.93e-5,"MEAN_MOTION_DDOT":0},{"OBJECT_NAME":"OBJECT A","OBJECT_ID":"2024-110A","EPOCH":"2026-03-09T23:09:02.134656","MEAN_MOTION":15.1192128,"ECCENTRICITY":0.0007919,"INCLINATION":97.5675,"RA_OF_ASC_NODE":161.4531,"ARG_OF_PERICENTER":228.7681,"MEAN_ANOMALY":131.2868,"EPHEMERIS_TYPE":0,"CLASSIFICATION_TYPE":"U","NORAD_CAT_ID":60012,"ELEMENT_SET_NO":999,"REV_AT_EPOCH":9691,"BSTAR":0.00051932581,"MEAN_MOTION_DOT":8.842e-5,"MEAN_MOTION_DDOT":0}]
